{"fetched_at":"2026-07-09T18:16:44.960Z","source":"https://celestrak.org/NORAD/elements/gp.php?GROUP=planet&FORMAT=JSON","constellation":"tanager","records":[{"OBJECT_NAME":"TANAGER-1","OBJECT_ID":"2024-149AR","EPOCH":"2026-07-08T12:54:57.555360","CLASSIFICATION_TYPE":"U","MEAN_MOTION":15.43959935,"ECCENTRICITY":0.00016684,"INCLINATION":97.2296,"RA_OF_ASC_NODE":283.7105,"ARG_OF_PERICENTER":153.0537,"MEAN_ANOMALY":207.0799,"EPHEMERIS_TYPE":0,"NORAD_CAT_ID":60507,"ELEMENT_SET_NO":999,"REV_AT_EPOCH":10633,"BSTAR":0.000008205931,"MEAN_MOTION_DOT":0.00000289,"MEAN_MOTION_DDOT":0}]}
